[{"OBJECT_NAME":"COSMOS 2508 (RODNIK-S 14)","OBJECT_ID":"2015-050B","EPOCH":"2026-03-09T22:28:21.828864","MEAN_MOTION":12.42910688,"ECCENTRICITY":0.00132668,"INCLINATION":82.4887,"RA_OF_ASC_NODE":140.0122,"ARG_OF_PERICENTER":235.6844,"MEAN_ANOMALY":124.298,"EPHEMERIS_TYPE":0,"CLASSIFICATION_TYPE":"U","NORAD_CAT_ID":40921,"ELEMENT_SET_NO":999,"REV_AT_EPOCH":47451,"BSTAR":0.00088603491,"MEAN_MOTION_DOT":1.33e-6,"MEAN_MOTION_DDOT":0},{"OBJECT_NAME":"SL-8 R\/B","OBJECT_ID":"1976-008J","EPOCH":"2026-03-09T21:45:43.441056","MEAN_MOTION":12.20892801,"ECCENTRICITY":0.0132563,"INCLINATION":74.0601,"RA_OF_ASC_NODE":346.8808,"ARG_OF_PERICENTER":96.6564,"MEAN_ANOMALY":329.954,"EPHEMERIS_TYPE":0,"CLASSIFICATION_TYPE":"U","NORAD_CAT_ID":8615,"ELEMENT_SET_NO":999,"REV_AT_EPOCH":23339,"BSTAR":0.00023653631,"MEAN_MOTION_DOT":1.2e-7,"MEAN_MOTION_DDOT":0}]
